{
  "type": "FeatureCollection",
  "name": "Estaciones_Meteorologicas_Puno",
  "crs": {
    "type": "name",
    "properties": {
      "name": "urn:ogc:def:crs:OGC:1.3:CRS84"
    }
  },
  "features": [
    {
      "type": "Feature",
      "properties": {
        "NOMBRE": "Estación Puno",
        "TIPO": "Meteorológica Convencional",
        "ALTITUD_MSNM": 3812,
        "COORD_X": 12,
        "COORD_Y": 18,
        "TEMP_MEDIA_C": 9.5
      },
      "geometry": {
        "type": "Point",
        "coordinates": [
          -70.02,
          -15.84
        ]
      }
    },
    {
      "type": "Feature",
      "properties": {
        "NOMBRE": "Estación Juliaca",
        "TIPO": "Meteorológica Principal",
        "ALTITUD_MSNM": 3825,
        "COORD_X": 24,
        "COORD_Y": 30,
        "TEMP_MEDIA_C": 8.7
      },
      "geometry": {
        "type": "Point",
        "coordinates": [
          -70.13,
          -15.49
        ]
      }
    },
    {
      "type": "Feature",
      "properties": {
        "NOMBRE": "Estación Ilave",
        "TIPO": "Meteorológica Automática",
        "ALTITUD_MSNM": 3840,
        "COORD_X": 36,
        "COORD_Y": 24,
        "TEMP_MEDIA_C": 8.9
      },
      "geometry": {
        "type": "Point",
        "coordinates": [
          -69.66,
          -16.08
        ]
      }
    },
    {
      "type": "Feature",
      "properties": {
        "NOMBRE": "Centro Medio (Calculado)",
        "TIPO": "Centroide Espacial (Xm=24, Ym=24)",
        "ALTITUD_MSNM": 3826,
        "COORD_X": 24,
        "COORD_Y": 24,
        "TEMP_MEDIA_C": 9.0
      },
      "geometry": {
        "type": "Point",
        "coordinates": [
          -69.94,
          -15.8
        ]
      }
    },
    {
      "type": "Feature",
      "properties": {
        "NOMBRE": "Estación Ayaviri (Melgar)",
        "TIPO": "Agrometeorológica",
        "ALTITUD_MSNM": 3907,
        "COORD_X": 10,
        "COORD_Y": 35,
        "TEMP_MEDIA_C": 7.4
      },
      "geometry": {
        "type": "Point",
        "coordinates": [
          -70.58,
          -14.88
        ]
      }
    },
    {
      "type": "Feature",
      "properties": {
        "NOMBRE": "Estación Desaguadero (Chucuito)",
        "TIPO": "Hidrometeorológica",
        "ALTITUD_MSNM": 3810,
        "COORD_X": 42,
        "COORD_Y": 12,
        "TEMP_MEDIA_C": 8.2
      },
      "geometry": {
        "type": "Point",
        "coordinates": [
          -69.04,
          -16.56
        ]
      }
    }
  ]
}