{
  "type": "FeatureCollection",
  "name": "Provincias_Puno_EPSG4326",
  "crs": {
    "type": "name",
    "properties": {
      "name": "urn:ogc:def:crs:OGC:1.3:CRS84"
    }
  },
  "features": [
    {
      "type": "Feature",
      "properties": {
        "ID": 1,
        "PROVINCIA": "Puno",
        "CAPITAL": "Puno",
        "POBLACION": 222900,
        "SUPERFICIE_KM2": 6494.76,
        "ZONA": "Centro-Sur"
      },
      "geometry": {
        "type": "Polygon",
        "coordinates": [
          [
            [
              -70.25,
              -15.65
            ],
            [
              -69.8,
              -15.7
            ],
            [
              -69.6,
              -15.95
            ],
            [
              -69.95,
              -16.25
            ],
            [
              -70.35,
              -16.15
            ],
            [
              -70.4,
              -15.8
            ],
            [
              -70.25,
              -15.65
            ]
          ]
        ]
      }
    },
    {
      "type": "Feature",
      "properties": {
        "ID": 2,
        "PROVINCIA": "San Román",
        "CAPITAL": "Juliaca",
        "POBLACION": 307400,
        "SUPERFICIE_KM2": 1211.62,
        "ZONA": "Centro"
      },
      "geometry": {
        "type": "Polygon",
        "coordinates": [
          [
            [
              -70.35,
              -15.3
            ],
            [
              -70.05,
              -15.35
            ],
            [
              -70.08,
              -15.65
            ],
            [
              -70.3,
              -15.65
            ],
            [
              -70.45,
              -15.45
            ],
            [
              -70.35,
              -15.3
            ]
          ]
        ]
      }
    },
    {
      "type": "Feature",
      "properties": {
        "ID": 3,
        "PROVINCIA": "Azángaro",
        "CAPITAL": "Azángaro",
        "POBLACION": 136800,
        "SUPERFICIE_KM2": 4970.01,
        "ZONA": "Norte"
      },
      "geometry": {
        "type": "Polygon",
        "coordinates": [
          [
            [
              -70.5,
              -14.6
            ],
            [
              -70.0,
              -14.7
            ],
            [
              -69.95,
              -15.25
            ],
            [
              -70.35,
              -15.3
            ],
            [
              -70.6,
              -14.95
            ],
            [
              -70.5,
              -14.6
            ]
          ]
        ]
      }
    },
    {
      "type": "Feature",
      "properties": {
        "ID": 4,
        "PROVINCIA": "Chucuito",
        "CAPITAL": "Juli",
        "POBLACION": 126200,
        "SUPERFICIE_KM2": 3978.13,
        "ZONA": "Sur"
      },
      "geometry": {
        "type": "Polygon",
        "coordinates": [
          [
            [
              -69.5,
              -16.1
            ],
            [
              -69.15,
              -16.25
            ],
            [
              -69.2,
              -16.65
            ],
            [
              -69.6,
              -16.55
            ],
            [
              -69.7,
              -16.2
            ],
            [
              -69.5,
              -16.1
            ]
          ]
        ]
      }
    },
    {
      "type": "Feature",
      "properties": {
        "ID": 5,
        "PROVINCIA": "El Collao",
        "CAPITAL": "Ilave",
        "POBLACION": 81000,
        "SUPERFICIE_KM2": 5600.51,
        "ZONA": "Sur"
      },
      "geometry": {
        "type": "Polygon",
        "coordinates": [
          [
            [
              -69.8,
              -15.95
            ],
            [
              -69.45,
              -16.1
            ],
            [
              -69.55,
              -16.7
            ],
            [
              -70.05,
              -16.9
            ],
            [
              -70.15,
              -16.3
            ],
            [
              -69.8,
              -15.95
            ]
          ]
        ]
      }
    },
    {
      "type": "Feature",
      "properties": {
        "ID": 6,
        "PROVINCIA": "Melgar",
        "CAPITAL": "Ayaviri",
        "POBLACION": 74700,
        "SUPERFICIE_KM2": 6446.85,
        "ZONA": "Noroeste"
      },
      "geometry": {
        "type": "Polygon",
        "coordinates": [
          [
            [
              -71.1,
              -14.4
            ],
            [
              -70.45,
              -14.55
            ],
            [
              -70.5,
              -15.0
            ],
            [
              -70.9,
              -15.1
            ],
            [
              -71.2,
              -14.75
            ],
            [
              -71.1,
              -14.4
            ]
          ]
        ]
      }
    },
    {
      "type": "Feature",
      "properties": {
        "ID": 7,
        "PROVINCIA": "Huancané",
        "CAPITAL": "Huancané",
        "POBLACION": 69500,
        "SUPERFICIE_KM2": 2805.85,
        "ZONA": "Noreste"
      },
      "geometry": {
        "type": "Polygon",
        "coordinates": [
          [
            [
              -69.95,
              -15.05
            ],
            [
              -69.5,
              -15.0
            ],
            [
              -69.4,
              -15.4
            ],
            [
              -69.75,
              -15.45
            ],
            [
              -69.95,
              -15.05
            ]
          ]
        ]
      }
    },
    {
      "type": "Feature",
      "properties": {
        "ID": 8,
        "PROVINCIA": "Carabaya",
        "CAPITAL": "Macusani",
        "POBLACION": 73300,
        "SUPERFICIE_KM2": 12266.4,
        "ZONA": "Norte Alto"
      },
      "geometry": {
        "type": "Polygon",
        "coordinates": [
          [
            [
              -70.8,
              -13.6
            ],
            [
              -70.1,
              -13.8
            ],
            [
              -70.15,
              -14.45
            ],
            [
              -70.75,
              -14.3
            ],
            [
              -70.8,
              -13.6
            ]
          ]
        ]
      }
    },
    {
      "type": "Feature",
      "properties": {
        "ID": 9,
        "PROVINCIA": "Sandia",
        "CAPITAL": "Sandia",
        "POBLACION": 62100,
        "SUPERFICIE_KM2": 11863.41,
        "ZONA": "Selva/Noreste"
      },
      "geometry": {
        "type": "Polygon",
        "coordinates": [
          [
            [
              -70.0,
              -13.7
            ],
            [
              -69.2,
              -13.9
            ],
            [
              -69.3,
              -14.55
            ],
            [
              -69.9,
              -14.45
            ],
            [
              -70.0,
              -13.7
            ]
          ]
        ]
      }
    },
    {
      "type": "Feature",
      "properties": {
        "ID": 10,
        "PROVINCIA": "Lampa",
        "CAPITAL": "Lampa",
        "POBLACION": 48200,
        "SUPERFICIE_KM2": 5791.73,
        "ZONA": "Oeste"
      },
      "geometry": {
        "type": "Polygon",
        "coordinates": [
          [
            [
              -70.9,
              -15.05
            ],
            [
              -70.4,
              -15.15
            ],
            [
              -70.45,
              -15.6
            ],
            [
              -70.85,
              -15.65
            ],
            [
              -70.9,
              -15.05
            ]
          ]
        ]
      }
    },
    {
      "type": "Feature",
      "properties": {
        "ID": 11,
        "PROVINCIA": "Yunguyo",
        "CAPITAL": "Yunguyo",
        "POBLACION": 47400,
        "SUPERFICIE_KM2": 290.21,
        "ZONA": "Frontera Lago"
      },
      "geometry": {
        "type": "Polygon",
        "coordinates": [
          [
            [
              -69.15,
              -16.15
            ],
            [
              -68.95,
              -16.2
            ],
            [
              -69.0,
              -16.35
            ],
            [
              -69.2,
              -16.3
            ],
            [
              -69.15,
              -16.15
            ]
          ]
        ]
      }
    },
    {
      "type": "Feature",
      "properties": {
        "ID": 12,
        "PROVINCIA": "Moho",
        "CAPITAL": "Moho",
        "POBLACION": 27800,
        "SUPERFICIE_KM2": 1005.12,
        "ZONA": "Noreste Lago"
      },
      "geometry": {
        "type": "Polygon",
        "coordinates": [
          [
            [
              -69.55,
              -15.3
            ],
            [
              -69.3,
              -15.25
            ],
            [
              -69.25,
              -15.55
            ],
            [
              -69.5,
              -15.6
            ],
            [
              -69.55,
              -15.3
            ]
          ]
        ]
      }
    },
    {
      "type": "Feature",
      "properties": {
        "ID": 13,
        "PROVINCIA": "San Antonio de Putina",
        "CAPITAL": "Putina",
        "POBLACION": 50500,
        "SUPERFICIE_KM2": 3207.38,
        "ZONA": "Noreste"
      },
      "geometry": {
        "type": "Polygon",
        "coordinates": [
          [
            [
              -70.05,
              -14.7
            ],
            [
              -69.5,
              -14.6
            ],
            [
              -69.6,
              -15.0
            ],
            [
              -70.0,
              -14.95
            ],
            [
              -70.05,
              -14.7
            ]
          ]
        ]
      }
    }
  ]
}